{
  "norad_id": 68400,
  "name": "STARLINK-36235",
  "history": [
    {
      "epoch": "2026-04-24T20:00:01.999008Z",
      "apogee_km": 344.95837437752016,
      "perigee_km": 343.0492863816917,
      "latitude_deg": -19.336143630611943,
      "longitude_deg": -78.47784817722,
      "height_km": 351.9214452477043,
      "semi_major_axis_km": 6722.140830379605,
      "eccentricity": 0.000142,
      "inclination_deg": 97.2843,
      "raan_deg": 256.9474,
      "arg_perigee_deg": 90.1623,
      "mean_anomaly_deg": 109.084,
      "mean_motion_rev_day": 15.75220488
    },
    {
      "epoch": "2026-04-25T00:00:02.999808Z",
      "apogee_km": 345.0826824610458,
      "perigee_km": 342.9298488587856,
      "latitude_deg": 62.95784609955199,
      "longitude_deg": 29.665856736307862,
      "height_km": 353.880433667037,
      "semi_major_axis_km": 6722.143265659915,
      "eccentricity": 0.00016013,
      "inclination_deg": 97.2844,
      "raan_deg": 257.1222,
      "arg_perigee_deg": 87.2754,
      "mean_anomaly_deg": 336.5157,
      "mean_motion_rev_day": 15.75219632
    },
    {
      "epoch": "2026-04-27T11:11:35.499840Z",
      "apogee_km": 345.1025190137725,
      "perigee_km": 342.7565177988499,
      "latitude_deg": 9.202898630729035e-05,
      "longitude_deg": -123.64451797449652,
      "height_km": 346.976307152945,
      "semi_major_axis_km": 6722.066518406311,
      "eccentricity": 0.0001745,
      "inclination_deg": 97.2834,
      "raan_deg": 259.7092,
      "arg_perigee_deg": 84.187,
      "mean_anomaly_deg": 275.9595,
      "mean_motion_rev_day": 15.75246609
    },
    {
      "epoch": "2026-04-28T20:44:09.274272Z",
      "apogee_km": 344.7218076740719,
      "perigee_km": 342.60309648677594,
      "latitude_deg": 4.4597761135401234e-05,
      "longitude_deg": 93.30421194311148,
      "height_km": 346.4618340620539,
      "semi_major_axis_km": 6721.799452080423,
      "eccentricity": 0.0001576,
      "inclination_deg": 97.2839,
      "raan_deg": 261.1762,
      "arg_perigee_deg": 69.7472,
      "mean_anomaly_deg": 290.3963,
      "mean_motion_rev_day": 15.7534049
    },
    {
      "epoch": "2026-04-29T19:36:20.364768Z",
      "apogee_km": 345.225878470299,
      "perigee_km": 342.3542712239241,
      "latitude_deg": 5.136869761105226e-05,
      "longitude_deg": 110.31817383633488,
      "height_km": 345.56940609376187,
      "semi_major_axis_km": 6721.927074847112,
      "eccentricity": 0.0002136,
      "inclination_deg": 97.2847,
      "raan_deg": 262.1756,
      "arg_perigee_deg": 14.8343,
      "mean_anomaly_deg": 345.2985,
      "mean_motion_rev_day": 15.75295626
    },
    {
      "epoch": "2026-04-30T15:25:34.280832Z",
      "apogee_km": 345.2483601216927,
      "perigee_km": 342.3678722005152,
      "latitude_deg": -4.4607070849663886e-05,
      "longitude_deg": 173.06190184696064,
      "height_km": 347.24325464610206,
      "semi_major_axis_km": 6721.945116161104,
      "eccentricity": 0.00021426,
      "inclination_deg": 97.2848,
      "raan_deg": 263.0413,
      "arg_perigee_deg": 100.8075,
      "mean_anomaly_deg": 259.3431,
      "mean_motion_rev_day": 15.75289284
    },
    {
      "epoch": "2026-05-02T08:35:32.230752Z",
      "apogee_km": 344.7457000811228,
      "perigee_km": 343.3636174760777,
      "latitude_deg": -6.285079474807782e-06,
      "longitude_deg": -84.32009487191554,
      "height_km": 346.68446616164624,
      "semi_major_axis_km": 6722.1916587786,
      "eccentricity": 0.0001028,
      "inclination_deg": 97.285,
      "raan_deg": 264.8414,
      "arg_perigee_deg": 38.9541,
      "mean_anomaly_deg": 321.1798,
      "mean_motion_rev_day": 15.75202622
    },
    {
      "epoch": "2026-05-03T19:39:34.183296Z",
      "apogee_km": 344.57931766149886,
      "perigee_km": 342.99025535116925,
      "latitude_deg": -5.4689062911783704e-05,
      "longitude_deg": 109.76431268370155,
      "height_km": 346.2886687736648,
      "semi_major_axis_km": 6721.921786506334,
      "eccentricity": 0.0001182,
      "inclination_deg": 97.2837,
      "raan_deg": 266.3741,
      "arg_perigee_deg": 33.3821,
      "mean_anomaly_deg": 326.7518,
      "mean_motion_rev_day": 15.75297485
    },
    {
      "epoch": "2026-05-04T20:00:01.999008Z",
      "apogee_km": 357.3130379084214,
      "perigee_km": 355.4704708412246,
      "latitude_deg": -20.432621100957117,
      "longitude_deg": 107.42347256986118,
      "height_km": 364.45692632569256,
      "semi_major_axis_km": 6734.528754374823,
      "eccentricity": 0.0001368,
      "inclination_deg": 97.285,
      "raan_deg": 267.4344,
      "arg_perigee_deg": 76.5178,
      "mean_anomaly_deg": 263.1338,
      "mean_motion_rev_day": 15.70876145
    },
    {
      "epoch": "2026-05-05T20:00:03.000384Z",
      "apogee_km": 369.61024867981723,
      "perigee_km": 367.23950683597286,
      "latitude_deg": -43.39060609415768,
      "longitude_deg": -82.14362122873467,
      "height_km": 386.0883185214825,
      "semi_major_axis_km": 6746.561877757895,
      "eccentricity": 0.0001757,
      "inclination_deg": 97.285,
      "raan_deg": 268.4737,
      "arg_perigee_deg": 87.0102,
      "mean_anomaly_deg": 136.5276,
      "mean_motion_rev_day": 15.66675313
    },
    {
      "epoch": "2026-05-06T20:00:01.999008Z",
      "apogee_km": 381.585725350772,
      "perigee_km": 379.67299447091773,
      "latitude_deg": 82.43796533498013,
      "longitude_deg": -1.9246551427428025,
      "height_km": 393.2818522080985,
      "semi_major_axis_km": 6758.766359910845,
      "eccentricity": 0.0001415,
      "inclination_deg": 97.2854,
      "raan_deg": 269.5099,
      "arg_perigee_deg": 71.98,
      "mean_anomaly_deg": 20.1957,
      "mean_motion_rev_day": 15.62433749
    },
    {
      "epoch": "2026-05-07T20:00:01.999008Z",
      "apogee_km": 393.9203158043556,
      "perigee_km": 391.7211087394089,
      "latitude_deg": -53.883901301224974,
      "longitude_deg": 114.88732523189401,
      "height_km": 414.83930699538917,
      "semi_major_axis_km": 6770.957712271882,
      "eccentricity": 0.0001624,
      "inclination_deg": 97.2846,
      "raan_deg": 270.5364,
      "arg_perigee_deg": 105.6762,
      "mean_anomaly_deg": 200.0574,
      "mean_motion_rev_day": 15.58215822
    },
    {
      "epoch": "2026-05-08T20:00:01.999008Z",
      "apogee_km": 406.2783336467619,
      "perigee_km": 403.8024738943859,
      "latitude_deg": 35.57303192889059,
      "longitude_deg": -69.89444099355504,
      "height_km": 409.4480736459338,
      "semi_major_axis_km": 6783.177403770574,
      "eccentricity": 0.0001825,
      "inclination_deg": 97.2854,
      "raan_deg": 271.5566,
      "arg_perigee_deg": 78.4469,
      "mean_anomaly_deg": 65.704,
      "mean_motion_rev_day": 15.540071
    },
    {
      "epoch": "2026-05-09T20:00:04.000032Z",
      "apogee_km": 419.45811118319216,
      "perigee_km": 417.28594689751117,
      "latitude_deg": -32.387120528123845,
      "longitude_deg": 109.53428109436462,
      "height_km": 431.3738906754661,
      "semi_major_axis_km": 6796.509029040351,
      "eccentricity": 0.0001598,
      "inclination_deg": 97.2848,
      "raan_deg": 272.5712,
      "arg_perigee_deg": 97.4936,
      "mean_anomaly_deg": 230.113,
      "mean_motion_rev_day": 15.49436972
    },
    {
      "epoch": "2026-05-10T20:00:01.999008Z",
      "apogee_km": 427.68289394965177,
      "perigee_km": 425.3080772121848,
      "latitude_deg": 41.27835147630047,
      "longitude_deg": -68.65120433807606,
      "height_km": 432.0182148470999,
      "semi_major_axis_km": 6804.632485580918,
      "eccentricity": 0.0001745,
      "inclination_deg": 97.285,
      "raan_deg": 273.5806,
      "arg_perigee_deg": 76.4364,
      "mean_anomaly_deg": 61.9507,
      "mean_motion_rev_day": 15.46663194
    },
    {
      "epoch": "2026-05-11T20:00:01.999008Z",
      "apogee_km": 439.6698833947112,
      "perigee_km": 436.76611616480386,
      "latitude_deg": -63.99357145587497,
      "longitude_deg": 120.05631444380705,
      "height_km": 463.9473541247115,
      "semi_major_axis_km": 6816.354999779757,
      "eccentricity": 0.000213,
      "inclination_deg": 97.2839,
      "raan_deg": 274.5791,
      "arg_perigee_deg": 83.7265,
      "mean_anomaly_deg": 211.5251,
      "mean_motion_rev_day": 15.42675069
    },
    {
      "epoch": "2026-05-12T20:00:01.999008Z",
      "apogee_km": 452.04270679288675,
      "perigee_km": 449.6334443862197,
      "latitude_deg": 75.23164715500434,
      "longitude_deg": 76.13857507862244,
      "height_km": 462.49884571433415,
      "semi_major_axis_km": 6828.975075589553,
      "eccentricity": 0.0001764,
      "inclination_deg": 97.2847,
      "raan_deg": 275.5797,
      "arg_perigee_deg": 73.7906,
      "mean_anomaly_deg": 3.2524,
      "mean_motion_rev_day": 15.38400706
    },
    {
      "epoch": "2026-05-13T20:00:01.999008Z",
      "apogee_km": 466.7899749883736,
      "perigee_km": 464.57394640890016,
      "latitude_deg": -23.960154896351977,
      "longitude_deg": -78.26636413756982,
      "height_km": 475.40360956521357,
      "semi_major_axis_km": 6843.818960698637,
      "eccentricity": 0.0001619,
      "inclination_deg": 97.2843,
      "raan_deg": 276.5682,
      "arg_perigee_deg": 80.6747,
      "mean_anomaly_deg": 123.2252,
      "mean_motion_rev_day": 15.33398355
    },
    {
      "epoch": "2026-05-14T06:00:02.000160Z",
      "apogee_km": 466.9319901358067,
      "perigee_km": 464.43125881042306,
      "latitude_deg": -17.5389351166184,
      "longitude_deg": -42.72572482920099,
      "height_km": 472.8363481668951,
      "semi_major_axis_km": 6843.818624473114,
      "eccentricity": 0.0001827,
      "inclination_deg": 97.2848,
      "raan_deg": 276.9785,
      "arg_perigee_deg": 79.942,
      "mean_anomaly_deg": 262.6181,
      "mean_motion_rev_day": 15.33398468
    }
  ]
}